{"fetched_at":"2026-03-29T16:36:15Z","count":15609,"tles":[{"name":"STARLINK-11399 [DTC]","line1":"1 63063U 25035M   26087.88894652  .00177294  00000+0  13546-2 0  9996","line2":"2 63063  42.9986 259.3220 0001220 257.8340 102.2391 15.70863027 64248","category":"Starlink"}]}