{
  "norad_id": 63063,
  "name": "STARLINK-11399 [DTC]",
  "history": [
    {
      "epoch": "2026-03-28T21:20:04.979328",
      "apogee_km": 357.25086397909126,
      "perigee_km": 355.6076298148482,
      "latitude_deg": 35.5250091746331,
      "longitude_deg": -148.36113407998346,
      "semi_major_axis_km": 6734.5662468969695,
      "eccentricity": 0.000122,
      "inclination_deg": 42.9986,
      "raan_deg": 259.322,
      "arg_perigee_deg": 257.834,
      "mean_anomaly_deg": 102.2391,
      "mean_motion_rev_day": 15.70863027
    }
  ]
}